start=new Date('2023-03-23T00:00:00.000Z').valueOf();
sats=[{"COUNTRY_CODE":"US","BSTAR":"0.00024777000000","OBJECT_TYPE":"PAYLOAD","SEMIMAJOR_AXIS":"6937.199","SITE":"AFETR","NORAD_CAT_ID":"54837","EPHEMERIS_TYPE":"0","TLE_LINE2":"2 54837  43.0010 258.3075 0001416 275.3424  84.7257 15.02541589 13058","LAUNCH_DATE":"2022-12-28","OBJECT_ID":"2022-177T","OBJECT_NAME":"STARLINK-5369","TLE_LINE1":"1 54837U 22177T   23081.60580196  .00003145  00000-0  24777-3 0  9998","GP_ID":"228643950","REV_AT_EPOCH":"1305","ARG_OF_PERICENTER":"275.3424","RCS_SIZE":"LARGE","EPOCH":"2023-03-22T14:32:21.289344","DECAY_DATE":null,"MEAN_MOTION_DDOT":"0.0000000000000","ECCENTRICITY":"0.00014160","MEAN_ELEMENT_THEORY":"SGP4","PERIOD":"95.838","MEAN_MOTION_DOT":"0.00003145","APOAPSIS":"560.047","CENTER_NAME":"EARTH","TIME_SYSTEM":"UTC","INCLINATION":"43.0010","RA_OF_ASC_NODE":"258.3075","MEAN_MOTION":"15.02541589","REF_FRAME":"TEME","CLASSIFICATION_TYPE":"U","MEAN_ANOMALY":"84.7257","ELEMENT_SET_NO":"999","FILE":"3867901","PERIAPSIS":"558.082"},{"ECCENTRICITY":"0.00012600","MEAN_ELEMENT_THEORY":"SGP4","PERIOD":"95.838","TLE_LINE1":"1 54838U 22177U   23081.79746425  .00001845  00000-0  15161-3 0  9990","GP_ID":"228643841","RCS_SIZE":"LARGE","ARG_OF_PERICENTER":"276.3256","REV_AT_EPOCH":"1308","EPOCH":"2023-03-22T19:08:20.911200","MEAN_MOTION_DDOT":"0.0000000000000","DECAY_DATE":null,"LAUNCH_DATE":"2022-12-28","OBJECT_ID":"2022-177U","TLE_LINE2":"2 54838  43.0020 257.1664 0001260 276.3256  83.7442 15.02542887 13082","OBJECT_NAME":"STARLINK-5372","OBJECT_TYPE":"PAYLOAD","BSTAR":"0.00015161000000","COUNTRY_CODE":"US","EPHEMERIS_TYPE":"0","SITE":"AFETR","SEMIMAJOR_AXIS":"6937.195","NORAD_CAT_ID":"54838","FILE":"3867898","PERIAPSIS":"558.186","CLASSIFICATION_TYPE":"U","REF_FRAME":"TEME","MEAN_MOTION":"15.02542887","MEAN_ANOMALY":"83.7442","ELEMENT_SET_NO":"999","TIME_SYSTEM":"UTC","INCLINATION":"43.0020","RA_OF_ASC_NODE":"257.1664","APOAPSIS":"559.934","MEAN_MOTION_DOT":"0.00001845","CENTER_NAME":"EARTH"},{"OBJECT_NAME":"STARLINK-5110","TLE_LINE2":"2 54839  43.0010 262.5411 0001775 273.7725  86.2914 15.02539113 13917","LAUNCH_DATE":"2022-12-28","OBJECT_ID":"2022-177V","NORAD_CAT_ID":"54839","SITE":"AFETR","SEMIMAJOR_AXIS":"6937.207","EPHEMERIS_TYPE":"0","COUNTRY_CODE":"US","BSTAR":"0.00013901000000","OBJECT_TYPE":"PAYLOAD","PERIOD":"95.838","MEAN_ELEMENT_THEORY":"SGP4","ECCENTRICITY":"0.00017750","DECAY_DATE":null,"MEAN_MOTION_DDOT":"0.0000000000000","EPOCH":"2023-03-21T19:04:26.257440","REV_AT_EPOCH":"1391","ARG_OF_PERICENTER":"273.7725","RCS_SIZE":"LARGE","TLE_LINE1":"1 54839U 22177V   23080.79474835  .00001675  00000-0  13901-3 0  9994","GP_ID":"228623071","RA_OF_ASC_NODE":"262.5411","INCLINATION":"43.0010","TIME_SYSTEM":"UTC","CENTER_NAME":"EARTH","MEAN_MOTION_DOT":"0.00001675","APOAPSIS":"560.303","PERIAPSIS":"557.841","FILE":"3866953","ELEMENT_SET_NO":"999","MEAN_ANOMALY":"86.2914","REF_FRAME":"TEME","MEAN_MOTION":"15.02539113","CLASSIFICATION_TYPE":"U"},{"OBJECT_TYPE":"PAYLOAD","COUNTRY_CODE":"US","BSTAR":"0.00015034000000","EPHEMERIS_TYPE":"0","SITE":"AFETR","SEMIMAJOR_AXIS":"6937.207","NORAD_CAT_ID":"54840","OBJECT_ID":"2022-177W","LAUNCH_DATE":"2022-12-28","TLE_LINE2":"2 54840  43.0013 260.3491 0001262 261.3561  98.7139 15.02539001 12998","OBJECT_NAME":"STARLINK-5368","GP_ID":"228628142","TLE_LINE1":"1 54840U 22177W   23081.19028653  .00001828  00000-0  15034-3 0  9993","ARG_OF_PERICENTER":"261.3561","RCS_SIZE":"LARGE","REV_AT_EPOCH":"1299","EPOCH":"2023-03-22T04:34:00.756192","MEAN_MOTION_DDOT":"0.0000000000000","DECAY_DATE":null,"ECCENTRICITY":"0.00012620","MEAN_ELEMENT_THEORY":"SGP4","PERIOD":"95.838","APOAPSIS":"559.948","MEAN_MOTION_DOT":"0.00001828","CENTER_NAME":"EARTH","TIME_SYSTEM":"UTC","INCLINATION":"43.0013","RA_OF_ASC_NODE":"260.3491","CLASSIFICATION_TYPE":"U","MEAN_MOTION":"15.02539001","REF_FRAME":"TEME","MEAN_ANOMALY":"98.7139","ELEMENT_SET_NO":"999","FILE":"3867199","PERIAPSIS":"558.197"},{"FILE":"3867898","PERIAPSIS":"558.116","MEAN_ANOMALY":"77.1896","CLASSIFICATION_TYPE":"U","REF_FRAME":"TEME","MEAN_MOTION":"15.02544815","ELEMENT_SET_NO":"999","TIME_SYSTEM":"UTC","RA_OF_ASC_NODE":"257.1844","INCLINATION":"43.0013","APOAPSIS":"559.992","MEAN_MOTION_DOT":"0.00003177","CENTER_NAME":"EARTH","ECCENTRICITY":"0.00013520","PERIOD":"95.837","MEAN_ELEMENT_THEORY":"SGP4","RCS_SIZE":"LARGE","ARG_OF_PERICENTER":"282.8795","REV_AT_EPOCH":"1308","GP_ID":"228643954","TLE_LINE1":"1 54841U 22177X   23081.79968679  .00003177  00000-0  25012-3 0  9997","DECAY_DATE":null,"MEAN_MOTION_DDOT":"0.0000000000000","EPOCH":"2023-03-22T19:11:32.938656","LAUNCH_DATE":"2022-12-28","OBJECT_ID":"2022-177X","TLE_LINE2":"2 54841  43.0013 257.1844 0001352 282.8795  77.1896 15.02544815 13083","OBJECT_NAME":"STARLINK-4659","EPHEMERIS_TYPE":"0","NORAD_CAT_ID":"54841","SITE":"AFETR","SEMIMAJOR_AXIS":"6937.189","OBJECT_TYPE":"PAYLOAD","BSTAR":"0.00025012000000","COUNTRY_CODE":"US"},{"FILE":"3867308","PERIAPSIS":"558.085","REF_FRAME":"TEME","MEAN_MOTION":"15.02538282","CLASSIFICATION_TYPE":"U","MEAN_ANOMALY":"84.6344","ELEMENT_SET_NO":"999","TIME_SYSTEM":"UTC","INCLINATION":"43.0015","RA_OF_ASC_NODE":"260.3111","MEAN_MOTION_DOT":"0.00001341","APOAPSIS":"560.064","CENTER_NAME":"EARTH","ECCENTRICITY":"0.00014260","MEAN_ELEMENT_THEORY":"SGP4","PERIOD":"95.838","TLE_LINE1":"1 54842U 22177Y   23081.18584530  .00001341  00000-0  11431-3 0  9992","GP_ID":"228631996","REV_AT_EPOCH":"1299","RCS_SIZE":"LARGE","ARG_OF_PERICENTER":"275.4335","EPOCH":"2023-03-22T04:27:37.033920","DECAY_DATE":null,"MEAN_MOTION_DDOT":"0.0000000000000","TLE_LINE2":"2 54842  43.0015 260.3111 0001426 275.4335  84.6344 15.02538282 12990","LAUNCH_DATE":"2022-12-28","OBJECT_ID":"2022-177Y","OBJECT_NAME":"STARLINK-5387","BSTAR":"0.00011431000000","COUNTRY_CODE":"US","OBJECT_TYPE":"PAYLOAD","SITE":"AFETR","NORAD_CAT_ID":"54842","SEMIMAJOR_AXIS":"6937.210","EPHEMERIS_TYPE":"0"},{"ECCENTRICITY":"0.00014980","MEAN_ELEMENT_THEORY":"SGP4","PERIOD":"95.837","GP_ID":"228643835","TLE_LINE1":"1 54843U 22177Z   23081.79413516  .00005181  00000-0  39822-3 0  9995","REV_AT_EPOCH":"1308","RCS_SIZE":"LARGE","ARG_OF_PERICENTER":"279.5776","EPOCH":"2023-03-22T19:03:33.277824","MEAN_MOTION_DDOT":"0.0000000000000","DECAY_DATE":null,"TLE_LINE2":"2 54843  43.0005 257.1414 0001498 279.5776  80.4897 15.02548639 13088","LAUNCH_DATE":"2022-12-28","OBJECT_ID":"2022-177Z","OBJECT_NAME":"STARLINK-5304","BSTAR":"0.00039822000000","COUNTRY_CODE":"US","OBJECT_TYPE":"PAYLOAD","SITE":"AFETR","SEMIMAJOR_AXIS":"6937.178","NORAD_CAT_ID":"54843","EPHEMERIS_TYPE":"0","FILE":"3867898","PERIAPSIS":"558.003","REF_FRAME":"TEME","MEAN_MOTION":"15.02548639","CLASSIFICATION_TYPE":"U","MEAN_ANOMALY":"80.4897","ELEMENT_SET_NO":"999","TIME_SYSTEM":"UTC","INCLINATION":"43.0005","RA_OF_ASC_NODE":"257.1414","MEAN_MOTION_DOT":"0.00005181","APOAPSIS":"560.082","CENTER_NAME":"EARTH"},{"COUNTRY_CODE":"US","BSTAR":"0.00004760400000","OBJECT_TYPE":"PAYLOAD","SITE":"AFETR","NORAD_CAT_ID":"54844","SEMIMAJOR_AXIS":"6940.223","EPHEMERIS_TYPE":"0","TLE_LINE2":"2 54844  43.0031 258.3464 0001680 278.1273  81.9378 15.01559631 13045","OBJECT_ID":"2022-177AA","LAUNCH_DATE":"2022-12-28","OBJECT_NAME":"STARLINK-5388","GP_ID":"228637606","TLE_LINE1":"1 54844U 22177AA  23081.49933406  .00000425  00000-0  47604-4 0  9992","REV_AT_EPOCH":"1304","RCS_SIZE":"LARGE","ARG_OF_PERICENTER":"278.1273","EPOCH":"2023-03-22T11:59:02.462784","MEAN_MOTION_DDOT":"0.0000000000000","DECAY_DATE":null,"ECCENTRICITY":"0.00016800","MEAN_ELEMENT_THEORY":"SGP4","PERIOD":"95.900","MEAN_MOTION_DOT":"0.00000425","APOAPSIS":"563.254","CENTER_NAME":"EARTH","TIME_SYSTEM":"UTC","INCLINATION":"43.0031","RA_OF_ASC_NODE":"258.3464","REF_FRAME":"TEME","MEAN_MOTION":"15.01559631","CLASSIFICATION_TYPE":"U","MEAN_ANOMALY":"81.9378","ELEMENT_SET_NO":"999","FILE":"3867583","PERIAPSIS":"560.922"},{"OBJECT_NAME":"STARLINK-5082","LAUNCH_DATE":"2022-12-28","OBJECT_ID":"2022-177AB","TLE_LINE2":"2 54845  43.0018 257.0834 0000883 276.3552  83.7190 15.02556634 13089","EPHEMERIS_TYPE":"0","SITE":"AFETR","SEMIMAJOR_AXIS":"6937.153","NORAD_CAT_ID":"54845","OBJECT_TYPE":"PAYLOAD","BSTAR":"0.00046252000000","COUNTRY_CODE":"US","PERIOD":"95.837","MEAN_ELEMENT_THEORY":"SGP4","ECCENTRICITY":"0.00008830","MEAN_MOTION_DDOT":"0.0000000000000","DECAY_DATE":null,"EPOCH":"2023-03-22T18:52:22.033632","RCS_SIZE":"LARGE","ARG_OF_PERICENTER":"276.3552","REV_AT_EPOCH":"1308","TLE_LINE1":"1 54845U 22177AB  23081.78636613  .00006053  00000-0  46252-3 0  9995","GP_ID":"228643846","RA_OF_ASC_NODE":"257.0834","INCLINATION":"43.0018","TIME_SYSTEM":"UTC","CENTER_NAME":"EARTH","APOAPSIS":"559.631","MEAN_MOTION_DOT":"0.00006053","PERIAPSIS":"558.405","FILE":"3867898","ELEMENT_SET_NO":"999","MEAN_ANOMALY":"83.7190","CLASSIFICATION_TYPE":"U","MEAN_MOTION":"15.02556634","REF_FRAME":"TEME"},{"NORAD_CAT_ID":"54846","SITE":"AFETR","SEMIMAJOR_AXIS":"6937.212","EPHEMERIS_TYPE":"0","COUNTRY_CODE":"US","BSTAR":"0.00007293300000","OBJECT_TYPE":"PAYLOAD","TLE_LINE2":"2 54846  43.0024 260.2939 0001053 286.9986  73.0741 15.02537326 12997","LAUNCH_DATE":"2022-12-28","OBJECT_ID":"2022-177AC","OBJECT_NAME":"STARLINK-5360","REV_AT_EPOCH":"1299","RCS_SIZE":"LARGE","ARG_OF_PERICENTER":"286.9986","GP_ID":"228625327","TLE_LINE1":"1 54846U 22177AC  23081.18251745  .00000782  00000-0  72933-4 0  9998","DECAY_DATE":null,"MEAN_MOTION_DDOT":"0.0000000000000","EPOCH":"2023-03-22T04:22:49.507680","ECCENTRICITY":"0.00010530","PERIOD":"95.838","MEAN_ELEMENT_THEORY":"SGP4","MEAN_MOTION_DOT":"0.00000782","APOAPSIS":"559.808","CENTER_NAME":"EARTH","TIME_SYSTEM":"UTC","RA_OF_ASC_NODE":"260.2939","INCLINATION":"43.0024","MEAN_ANOMALY":"73.0741","MEAN_MOTION":"15.02537326","REF_FRAME":"TEME","CLASSIFICATION_TYPE":"U","ELEMENT_SET_NO":"999","FILE":"3867013","PERIAPSIS":"558.347"}];
